[{"OBJECT_NAME":"PUNCH-WFI 2 (SMEX 15C)","OBJECT_ID":"2025-047D","EPOCH":"2026-03-09T22:37:47.775648","MEAN_MOTION":14.74227311,"ECCENTRICITY":0.00102861,"INCLINATION":97.9559,"RA_OF_ASC_NODE":255.8558,"ARG_OF_PERICENTER":135.6777,"MEAN_ANOMALY":224.5257,"EPHEMERIS_TYPE":0,"CLASSIFICATION_TYPE":"U","NORAD_CAT_ID":63181,"ELEMENT_SET_NO":999,"REV_AT_EPOCH":5343,"BSTAR":0.00015546473,"MEAN_MOTION_DOT":9.78e-6,"MEAN_MOTION_DDOT":0},{"OBJECT_NAME":"COSMOS 2251 DEB","OBJECT_ID":"1993-036KT","EPOCH":"2026-03-09T17:21:57.164256","MEAN_MOTION":14.66352531,"ECCENTRICITY":0.00833892,"INCLINATION":74.0367,"RA_OF_ASC_NODE":311.1079,"ARG_OF_PERICENTER":186.5555,"MEAN_ANOMALY":231.461,"EPHEMERIS_TYPE":0,"CLASSIFICATION_TYPE":"U","NORAD_CAT_ID":34122,"ELEMENT_SET_NO":999,"REV_AT_EPOCH":89959,"BSTAR":0.001021566,"MEAN_MOTION_DOT":5.914e-5,"MEAN_MOTION_DDOT":0}]
